GLOBALSTAR M035         
1 25851U 99037A   25292.28180745 -.00000052  00000+0  45194-3 0  9997
2 25851  51.9914 138.2214 0013382 177.8040 225.9680 11.04540016109977
GLOBALSTAR M032         
1 25852U 99037B   25292.31307849 -.00000024  00000+0  13574-2 0  9993
2 25852  51.9966 314.7906 0012392  16.1630 343.9563 11.19063360148684
GLOBALSTAR M051         
1 25853U 99037C   25292.23510566 -.00000081  00000+0 -23363-3 0  9999
2 25853  51.9767 101.6381 0001486  89.8568 270.2413 11.42205360146568
GLOBALSTAR M030         
1 25854U 99037D   25292.17412915 -.00000102  00000+0 -56817-3 0  9996
2 25854  51.9871 260.0089 0002963 275.2804  84.7675 11.55114346164379
GLOBALSTAR M048         
1 25872U 99041A   25292.09166211 -.00000079  00000+0 -24235-3 0  9999
2 25872  51.9395  41.8078 0013482  42.5423 128.1114 11.33859414139037
GLOBALSTAR M026         
1 25873U 99041B   25292.25418562 -.00000089  00000+0 -92368-3 0  9990
2 25873  52.0000 254.9339 0001809 106.0186  32.0765 11.06851448162223
GLOBALSTAR M043         
1 25874U 99041C   25292.16010587  .00000006  00000+0  22166-2 0  9991
2 25874  51.9371 154.2331 0013456 158.2767 351.3490 11.25695852136838
GLOBALSTAR M028         
1 25875U 99041D   25292.11505278 -.00000065  00000+0  22825-3 0  9992
2 25875  51.9613 183.5333 0063397 341.3713  18.4829 12.50589799205688
