<?xml version="1.0" encoding="UTF-8"?>
<ndm xmlns:xsi="http://www.w3.org/2001/XMLSchema-instance" xsi:noNamespaceSchemaLocation="https://sanaregistry.org/r/ndmxml_unqualified/ndmxml-2.0.0-master-2.0.xsd">
<omm id="CCSDS_OMM_VERS" version="2.0">
<header><CREATION_DATE/><ORIGINATOR/></header><body><segment><metadata><OBJECT_NAME>GLOBALSTAR M035</OBJECT_NAME><OBJECT_ID>1999-037A</OBJECT_ID><CENTER_NAME>EARTH</CENTER_NAME><REF_FRAME>TEME</REF_FRAME><TIME_SYSTEM>UTC</TIME_SYSTEM><MEAN_ELEMENT_THEORY>SGP4</MEAN_ELEMENT_THEORY></metadata><data><meanElements><EPOCH>2025-10-19T06:45:48.163680</EPOCH><MEAN_MOTION>11.04540016</MEAN_MOTION><ECCENTRICITY>.00133824</ECCENTRICITY><INCLINATION>51.9914</INCLINATION><RA_OF_ASC_NODE>138.2214</RA_OF_ASC_NODE><ARG_OF_PERICENTER>177.8040</ARG_OF_PERICENTER><MEAN_ANOMALY>225.9680</MEAN_ANOMALY></meanElements><tleParameters><EPHEMERIS_TYPE>0</EPHEMERIS_TYPE><CLASSIFICATION_TYPE>U</CLASSIFICATION_TYPE><NORAD_CAT_ID>25851</NORAD_CAT_ID><ELEMENT_SET_NO>999</ELEMENT_SET_NO><REV_AT_EPOCH>10997</REV_AT_EPOCH><BSTAR>.45193555E-3</BSTAR><MEAN_MOTION_DOT>-.52E-6</MEAN_MOTION_DOT><MEAN_MOTION_DDOT>0</MEAN_MOTION_DDOT></tleParameters></data></segment></body></omm>
<omm id="CCSDS_OMM_VERS" version="2.0">
<header><CREATION_DATE/><ORIGINATOR/></header><body><segment><metadata><OBJECT_NAME>GLOBALSTAR M032</OBJECT_NAME><OBJECT_ID>1999-037B</OBJECT_ID><CENTER_NAME>EARTH</CENTER_NAME><REF_FRAME>TEME</REF_FRAME><TIME_SYSTEM>UTC</TIME_SYSTEM><MEAN_ELEMENT_THEORY>SGP4</MEAN_ELEMENT_THEORY></metadata><data><meanElements><EPOCH>2025-10-19T07:30:49.981536</EPOCH><MEAN_MOTION>11.19063360</MEAN_MOTION><ECCENTRICITY>.00123925</ECCENTRICITY><INCLINATION>51.9966</INCLINATION><RA_OF_ASC_NODE>314.7906</RA_OF_ASC_NODE><ARG_OF_PERICENTER>16.1630</ARG_OF_PERICENTER><MEAN_ANOMALY>343.9563</MEAN_ANOMALY></meanElements><tleParameters><EPHEMERIS_TYPE>0</EPHEMERIS_TYPE><CLASSIFICATION_TYPE>U</CLASSIFICATION_TYPE><NORAD_CAT_ID>25852</NORAD_CAT_ID><ELEMENT_SET_NO>999</ELEMENT_SET_NO><REV_AT_EPOCH>14868</REV_AT_EPOCH><BSTAR>.13574049E-2</BSTAR><MEAN_MOTION_DOT>-.24E-6</MEAN_MOTION_DOT><MEAN_MOTION_DDOT>0</MEAN_MOTION_DDOT></tleParameters></data></segment></body></omm>
<omm id="CCSDS_OMM_VERS" version="2.0">
<header><CREATION_DATE/><ORIGINATOR/></header><body><segment><metadata><OBJECT_NAME>GLOBALSTAR M051</OBJECT_NAME><OBJECT_ID>1999-037C</OBJECT_ID><CENTER_NAME>EARTH</CENTER_NAME><REF_FRAME>TEME</REF_FRAME><TIME_SYSTEM>UTC</TIME_SYSTEM><MEAN_ELEMENT_THEORY>SGP4</MEAN_ELEMENT_THEORY></metadata><data><meanElements><EPOCH>2025-10-19T05:38:33.129024</EPOCH><MEAN_MOTION>11.42205360</MEAN_MOTION><ECCENTRICITY>.0001486</ECCENTRICITY><INCLINATION>51.9767</INCLINATION><RA_OF_ASC_NODE>101.6381</RA_OF_ASC_NODE><ARG_OF_PERICENTER>89.8568</ARG_OF_PERICENTER><MEAN_ANOMALY>270.2413</MEAN_ANOMALY></meanElements><tleParameters><EPHEMERIS_TYPE>0</EPHEMERIS_TYPE><CLASSIFICATION_TYPE>U</CLASSIFICATION_TYPE><NORAD_CAT_ID>25853</NORAD_CAT_ID><ELEMENT_SET_NO>999</ELEMENT_SET_NO><REV_AT_EPOCH>14656</REV_AT_EPOCH><BSTAR>-.23363294E-3</BSTAR><MEAN_MOTION_DOT>-.81E-6</MEAN_MOTION_DOT><MEAN_MOTION_DDOT>0</MEAN_MOTION_DDOT></tleParameters></data></segment></body></omm>
<omm id="CCSDS_OMM_VERS" version="2.0">
<header><CREATION_DATE/><ORIGINATOR/></header><body><segment><metadata><OBJECT_NAME>GLOBALSTAR M030</OBJECT_NAME><OBJECT_ID>1999-037D</OBJECT_ID><CENTER_NAME>EARTH</CENTER_NAME><REF_FRAME>TEME</REF_FRAME><TIME_SYSTEM>UTC</TIME_SYSTEM><MEAN_ELEMENT_THEORY>SGP4</MEAN_ELEMENT_THEORY></metadata><data><meanElements><EPOCH>2025-10-19T04:10:44.758560</EPOCH><MEAN_MOTION>11.55114346</MEAN_MOTION><ECCENTRICITY>.00029637</ECCENTRICITY><INCLINATION>51.9871</INCLINATION><RA_OF_ASC_NODE>260.0089</RA_OF_ASC_NODE><ARG_OF_PERICENTER>275.2804</ARG_OF_PERICENTER><MEAN_ANOMALY>84.7675</MEAN_ANOMALY></meanElements><tleParameters><EPHEMERIS_TYPE>0</EPHEMERIS_TYPE><CLASSIFICATION_TYPE>U</CLASSIFICATION_TYPE><NORAD_CAT_ID>25854</NORAD_CAT_ID><ELEMENT_SET_NO>999</ELEMENT_SET_NO><REV_AT_EPOCH>16437</REV_AT_EPOCH><BSTAR>-.56817295E-3</BSTAR><MEAN_MOTION_DOT>-.102E-5</MEAN_MOTION_DOT><MEAN_MOTION_DDOT>0</MEAN_MOTION_DDOT></tleParameters></data></segment></body></omm>
<omm id="CCSDS_OMM_VERS" version="2.0">
<header><CREATION_DATE/><ORIGINATOR/></header><body><segment><metadata><OBJECT_NAME>GLOBALSTAR M048</OBJECT_NAME><OBJECT_ID>1999-041A</OBJECT_ID><CENTER_NAME>EARTH</CENTER_NAME><REF_FRAME>TEME</REF_FRAME><TIME_SYSTEM>UTC</TIME_SYSTEM><MEAN_ELEMENT_THEORY>SGP4</MEAN_ELEMENT_THEORY></metadata><data><meanElements><EPOCH>2025-10-19T02:11:59.606304</EPOCH><MEAN_MOTION>11.33859414</MEAN_MOTION><ECCENTRICITY>.00134824</ECCENTRICITY><INCLINATION>51.9395</INCLINATION><RA_OF_ASC_NODE>41.8078</RA_OF_ASC_NODE><ARG_OF_PERICENTER>42.5423</ARG_OF_PERICENTER><MEAN_ANOMALY>128.1114</MEAN_ANOMALY></meanElements><tleParameters><EPHEMERIS_TYPE>0</EPHEMERIS_TYPE><CLASSIFICATION_TYPE>U</CLASSIFICATION_TYPE><NORAD_CAT_ID>25872</NORAD_CAT_ID><ELEMENT_SET_NO>999</ELEMENT_SET_NO><REV_AT_EPOCH>13903</REV_AT_EPOCH><BSTAR>-.24234908E-3</BSTAR><MEAN_MOTION_DOT>-.79E-6</MEAN_MOTION_DOT><MEAN_MOTION_DDOT>0</MEAN_MOTION_DDOT></tleParameters></data></segment></body></omm>
<omm id="CCSDS_OMM_VERS" version="2.0">
<header><CREATION_DATE/><ORIGINATOR/></header><body><segment><metadata><OBJECT_NAME>GLOBALSTAR M026</OBJECT_NAME><OBJECT_ID>1999-041B</OBJECT_ID><CENTER_NAME>EARTH</CENTER_NAME><REF_FRAME>TEME</REF_FRAME><TIME_SYSTEM>UTC</TIME_SYSTEM><MEAN_ELEMENT_THEORY>SGP4</MEAN_ELEMENT_THEORY></metadata><data><meanElements><EPOCH>2025-10-19T06:06:01.637568</EPOCH><MEAN_MOTION>11.06851448</MEAN_MOTION><ECCENTRICITY>.0001809</ECCENTRICITY><INCLINATION>52.0000</INCLINATION><RA_OF_ASC_NODE>254.9339</RA_OF_ASC_NODE><ARG_OF_PERICENTER>106.0186</ARG_OF_PERICENTER><MEAN_ANOMALY>32.0765</MEAN_ANOMALY></meanElements><tleParameters><EPHEMERIS_TYPE>0</EPHEMERIS_TYPE><CLASSIFICATION_TYPE>U</CLASSIFICATION_TYPE><NORAD_CAT_ID>25873</NORAD_CAT_ID><ELEMENT_SET_NO>999</ELEMENT_SET_NO><REV_AT_EPOCH>16222</REV_AT_EPOCH><BSTAR>-.92367527E-3</BSTAR><MEAN_MOTION_DOT>-.89E-6</MEAN_MOTION_DOT><MEAN_MOTION_DDOT>0</MEAN_MOTION_DDOT></tleParameters></data></segment></body></omm>
<omm id="CCSDS_OMM_VERS" version="2.0">
<header><CREATION_DATE/><ORIGINATOR/></header><body><segment><metadata><OBJECT_NAME>GLOBALSTAR M043</OBJECT_NAME><OBJECT_ID>1999-041C</OBJECT_ID><CENTER_NAME>EARTH</CENTER_NAME><REF_FRAME>TEME</REF_FRAME><TIME_SYSTEM>UTC</TIME_SYSTEM><MEAN_ELEMENT_THEORY>SGP4</MEAN_ELEMENT_THEORY></metadata><data><meanElements><EPOCH>2025-10-19T03:50:33.147168</EPOCH><MEAN_MOTION>11.25695852</MEAN_MOTION><ECCENTRICITY>.00134561</ECCENTRICITY><INCLINATION>51.9371</INCLINATION><RA_OF_ASC_NODE>154.2331</RA_OF_ASC_NODE><ARG_OF_PERICENTER>158.2767</ARG_OF_PERICENTER><MEAN_ANOMALY>351.3490</MEAN_ANOMALY></meanElements><tleParameters><EPHEMERIS_TYPE>0</EPHEMERIS_TYPE><CLASSIFICATION_TYPE>U</CLASSIFICATION_TYPE><NORAD_CAT_ID>25874</NORAD_CAT_ID><ELEMENT_SET_NO>999</ELEMENT_SET_NO><REV_AT_EPOCH>13683</REV_AT_EPOCH><BSTAR>.22165926E-2</BSTAR><MEAN_MOTION_DOT>.6E-7</MEAN_MOTION_DOT><MEAN_MOTION_DDOT>0</MEAN_MOTION_DDOT></tleParameters></data></segment></body></omm>
<omm id="CCSDS_OMM_VERS" version="2.0">
<header><CREATION_DATE/><ORIGINATOR/></header><body><segment><metadata><OBJECT_NAME>GLOBALSTAR M028</OBJECT_NAME><OBJECT_ID>1999-041D</OBJECT_ID><CENTER_NAME>EARTH</CENTER_NAME><REF_FRAME>TEME</REF_FRAME><TIME_SYSTEM>UTC</TIME_SYSTEM><MEAN_ELEMENT_THEORY>SGP4</MEAN_ELEMENT_THEORY></metadata><data><meanElements><EPOCH>2025-10-19T02:45:40.560192</EPOCH><MEAN_MOTION>12.50589799</MEAN_MOTION><ECCENTRICITY>.0063397</ECCENTRICITY><INCLINATION>51.9613</INCLINATION><RA_OF_ASC_NODE>183.5333</RA_OF_ASC_NODE><ARG_OF_PERICENTER>341.3713</ARG_OF_PERICENTER><MEAN_ANOMALY>18.4829</MEAN_ANOMALY></meanElements><tleParameters><EPHEMERIS_TYPE>0</EPHEMERIS_TYPE><CLASSIFICATION_TYPE>U</CLASSIFICATION_TYPE><NORAD_CAT_ID>25875</NORAD_CAT_ID><ELEMENT_SET_NO>999</ELEMENT_SET_NO><REV_AT_EPOCH>20568</REV_AT_EPOCH><BSTAR>.22825118E-3</BSTAR><MEAN_MOTION_DOT>-.65E-6</MEAN_MOTION_DOT><MEAN_MOTION_DDOT>0</MEAN_MOTION_DDOT></tleParameters></data></segment></body></omm>

</ndm>
